CCSDS_OMM_VERS = 2.0
CREATION_DATE  = 
ORIGINATOR     = 

OBJECT_NAME    = SL-3 R/B
OBJECT_ID      = 1982-079B
CENTER_NAME    = EARTH
REF_FRAME      = TEME
TIME_SYSTEM    = UTC
MEAN_ELEMENT_THEORY = SGP/SGP4

EPOCH          = 2026-03-11T12:06:12.370176
MEAN_MOTION    = 15.24831766
ECCENTRICITY   = .0025121
INCLINATION    = 81.1478
RA_OF_ASC_NODE = 190.9348
ARG_OF_PERICENTER = 158.7015
MEAN_ANOMALY   = 201.5270

EPHEMERIS_TYPE = 0
CLASSIFICATION_TYPE = U
NORAD_CAT_ID   = 13403
ELEMENT_SET_NO = 999
REV_AT_EPOCH   = 37797
BSTAR          = .31379E-3
MEAN_MOTION_DOT = .7887E-4
MEAN_MOTION_DDOT = 0

CCSDS_OMM_VERS = 2.0
CREATION_DATE  = 
ORIGINATOR     = 

OBJECT_NAME    = SL-14 R/B
OBJECT_ID      = 1982-092B
CENTER_NAME    = EARTH
REF_FRAME      = TEME
TIME_SYSTEM    = UTC
MEAN_ELEMENT_THEORY = SGP/SGP4

EPOCH          = 2026-03-11T06:14:37.747104
MEAN_MOTION    = 14.86668036
ECCENTRICITY   = .0018941
INCLINATION    = 82.5692
RA_OF_ASC_NODE = 139.9307
ARG_OF_PERICENTER = 297.8937
MEAN_ANOMALY   = 130.0510

EPHEMERIS_TYPE = 0
CLASSIFICATION_TYPE = U
NORAD_CAT_ID   = 13553
ELEMENT_SET_NO = 999
REV_AT_EPOCH   = 32916
BSTAR          = .56648E-4
MEAN_MOTION_DOT = .529E-5
MEAN_MOTION_DDOT = 0

CCSDS_OMM_VERS = 2.0
CREATION_DATE  = 
ORIGINATOR     = 

OBJECT_NAME    = SL-3 R/B
OBJECT_ID      = 1983-010B
CENTER_NAME    = EARTH
REF_FRAME      = TEME
TIME_SYSTEM    = UTC
MEAN_ELEMENT_THEORY = SGP/SGP4

EPOCH          = 2026-03-11T05:58:55.188768
MEAN_MOTION    = 15.46421618
ECCENTRICITY   = .0017858
INCLINATION    = 81.1060
RA_OF_ASC_NODE = 0.3352
ARG_OF_PERICENTER = 45.8312
MEAN_ANOMALY   = 314.4397

EPHEMERIS_TYPE = 0
CLASSIFICATION_TYPE = U
NORAD_CAT_ID   = 13819
ELEMENT_SET_NO = 999
REV_AT_EPOCH   = 35818
BSTAR          = .40143E-3
MEAN_MOTION_DOT = .20038E-3
MEAN_MOTION_DDOT = 0

CCSDS_OMM_VERS = 2.0
CREATION_DATE  = 
ORIGINATOR     = 

OBJECT_NAME    = SL-3 R/B
OBJECT_ID      = 1983-075B
CENTER_NAME    = EARTH
REF_FRAME      = TEME
TIME_SYSTEM    = UTC
MEAN_ELEMENT_THEORY = SGP/SGP4

EPOCH          = 2026-03-11T12:11:57.458688
MEAN_MOTION    = 15.38467520
ECCENTRICITY   = .0020277
INCLINATION    = 97.6147
RA_OF_ASC_NODE = 75.1544
ARG_OF_PERICENTER = 218.9536
MEAN_ANOMALY   = 141.0248

EPHEMERIS_TYPE = 0
CLASSIFICATION_TYPE = U
NORAD_CAT_ID   = 14208
ELEMENT_SET_NO = 999
REV_AT_EPOCH   = 33043
BSTAR          = .34181E-3
MEAN_MOTION_DOT = .1298E-3
MEAN_MOTION_DDOT = 0

CCSDS_OMM_VERS = 2.0
CREATION_DATE  = 
ORIGINATOR     = 

OBJECT_NAME    = COSMOS 1536
OBJECT_ID      = 1984-013A
CENTER_NAME    = EARTH
REF_FRAME      = TEME
TIME_SYSTEM    = UTC
MEAN_ELEMENT_THEORY = SGP/SGP4

EPOCH          = 2026-03-11T11:49:46.107264
MEAN_MOTION    = 15.23852184
ECCENTRICITY   = .0012501
INCLINATION    = 82.5430
RA_OF_ASC_NODE = 106.0578
ARG_OF_PERICENTER = 276.1837
MEAN_ANOMALY   = 83.7976

EPHEMERIS_TYPE = 0
CLASSIFICATION_TYPE = U
NORAD_CAT_ID   = 14699
ELEMENT_SET_NO = 999
REV_AT_EPOCH   = 27289
BSTAR          = .29669E-3
MEAN_MOTION_DOT = .72E-4
MEAN_MOTION_DDOT = 0

CCSDS_OMM_VERS = 2.0
CREATION_DATE  = 
ORIGINATOR     = 

OBJECT_NAME    = SL-14 R/B
OBJECT_ID      = 1984-027B
CENTER_NAME    = EARTH
REF_FRAME      = TEME
TIME_SYSTEM    = UTC
MEAN_ELEMENT_THEORY = SGP/SGP4

EPOCH          = 2026-03-11T12:16:12.286848
MEAN_MOTION    = 14.85978698
ECCENTRICITY   = .0017187
INCLINATION    = 82.5389
RA_OF_ASC_NODE = 243.3038
ARG_OF_PERICENTER = 331.6477
MEAN_ANOMALY   = 28.3802

EPHEMERIS_TYPE = 0
CLASSIFICATION_TYPE = U
NORAD_CAT_ID   = 14820
ELEMENT_SET_NO = 999
REV_AT_EPOCH   = 24790
BSTAR          = .68348E-4
MEAN_MOTION_DOT = .622E-5
MEAN_MOTION_DDOT = 0

CCSDS_OMM_VERS = 2.0
CREATION_DATE  = 
ORIGINATOR     = 

OBJECT_NAME    = SL-8 R/B
OBJECT_ID      = 1985-006B
CENTER_NAME    = EARTH
REF_FRAME      = TEME
TIME_SYSTEM    = UTC
MEAN_ELEMENT_THEORY = SGP/SGP4

EPOCH          = 2026-03-11T12:40:28.430112
MEAN_MOTION    = 14.37784494
ECCENTRICITY   = .0018387
INCLINATION    = 74.0432
RA_OF_ASC_NODE = 257.7652
ARG_OF_PERICENTER = 175.1191
MEAN_ANOMALY   = 201.9815

EPHEMERIS_TYPE = 0
CLASSIFICATION_TYPE = U
NORAD_CAT_ID   = 15483
ELEMENT_SET_NO = 999
REV_AT_EPOCH   = 15429
BSTAR          = .13435E-3
MEAN_MOTION_DOT = .379E-5
MEAN_MOTION_DDOT = 0

CCSDS_OMM_VERS = 2.0
CREATION_DATE  = 
ORIGINATOR     = 

OBJECT_NAME    = SL-12 R/B(2)
OBJECT_ID      = 1985-042D
CENTER_NAME    = EARTH
REF_FRAME      = TEME
TIME_SYSTEM    = UTC
MEAN_ELEMENT_THEORY = SGP/SGP4

EPOCH          = 2026-03-11T11:04:55.459200
MEAN_MOTION    = 14.21982819
ECCENTRICITY   = .0033157
INCLINATION    = 71.1063
RA_OF_ASC_NODE = 83.9844
ARG_OF_PERICENTER = 125.2306
MEAN_ANOMALY   = 341.6068

EPHEMERIS_TYPE = 0
CLASSIFICATION_TYPE = U
NORAD_CAT_ID   = 15772
ELEMENT_SET_NO = 999
REV_AT_EPOCH   = 11464
BSTAR          = .69232E-4
MEAN_MOTION_DOT = .106E-5
MEAN_MOTION_DDOT = 0

CCSDS_OMM_VERS = 2.0
CREATION_DATE  = 
ORIGINATOR     = 

OBJECT_NAME    = SL-14 R/B
OBJECT_ID      = 1985-069B
CENTER_NAME    = EARTH
REF_FRAME      = TEME
TIME_SYSTEM    = UTC
MEAN_ELEMENT_THEORY = SGP/SGP4

EPOCH          = 2026-03-11T08:39:37.565280
MEAN_MOTION    = 14.86435379
ECCENTRICITY   = .0018627
INCLINATION    = 82.5288
RA_OF_ASC_NODE = 23.3616
ARG_OF_PERICENTER = 182.1335
MEAN_ANOMALY   = 177.9806

EPHEMERIS_TYPE = 0
CLASSIFICATION_TYPE = U
NORAD_CAT_ID   = 15945
ELEMENT_SET_NO = 999
REV_AT_EPOCH   = 17308
BSTAR          = .72304E-4
MEAN_MOTION_DOT = .665E-5
MEAN_MOTION_DDOT = 0

CCSDS_OMM_VERS = 2.0
CREATION_DATE  = 
ORIGINATOR     = 

OBJECT_NAME    = SL-16 R/B
OBJECT_ID      = 1985-097B
CENTER_NAME    = EARTH
REF_FRAME      = TEME
TIME_SYSTEM    = UTC
MEAN_ELEMENT_THEORY = SGP/SGP4

EPOCH          = 2026-03-11T11:24:35.415360
MEAN_MOTION    = 14.16598414
ECCENTRICITY   = .0009877
INCLINATION    = 71.0025
RA_OF_ASC_NODE = 136.7953
ARG_OF_PERICENTER = 257.6352
MEAN_ANOMALY   = 193.7425

EPHEMERIS_TYPE = 0
CLASSIFICATION_TYPE = U
NORAD_CAT_ID   = 16182
ELEMENT_SET_NO = 999
REV_AT_EPOCH   = 8748
BSTAR          = -.62249E-4
MEAN_MOTION_DOT = -.172E-5
MEAN_MOTION_DDOT = 0

CCSDS_OMM_VERS = 2.0
CREATION_DATE  = 
ORIGINATOR     = 

OBJECT_NAME    = SL-14 R/B
OBJECT_ID      = 1986-006B
CENTER_NAME    = EARTH
REF_FRAME      = TEME
TIME_SYSTEM    = UTC
MEAN_ELEMENT_THEORY = SGP/SGP4

EPOCH          = 2026-03-11T11:19:47.666208
MEAN_MOTION    = 14.86817649
ECCENTRICITY   = .007505
INCLINATION    = 82.5235
RA_OF_ASC_NODE = 258.0592
ARG_OF_PERICENTER = 266.7618
MEAN_ANOMALY   = 92.5011

EPHEMERIS_TYPE = 0
CLASSIFICATION_TYPE = U
NORAD_CAT_ID   = 16496
ELEMENT_SET_NO = 999
REV_AT_EPOCH   = 14947
BSTAR          = .81497E-4
MEAN_MOTION_DOT = .79E-5
MEAN_MOTION_DDOT = 0

CCSDS_OMM_VERS = 2.0
CREATION_DATE  = 
ORIGINATOR     = 

OBJECT_NAME    = COSMOS 1743
OBJECT_ID      = 1986-034A
CENTER_NAME    = EARTH
REF_FRAME      = TEME
TIME_SYSTEM    = UTC
MEAN_ELEMENT_THEORY = SGP/SGP4

EPOCH          = 2026-03-11T10:33:11.415744
MEAN_MOTION    = 15.58688651
ECCENTRICITY   = .0001475
INCLINATION    = 82.5296
RA_OF_ASC_NODE = 71.9940
ARG_OF_PERICENTER = 275.9699
MEAN_ANOMALY   = 84.1389

EPHEMERIS_TYPE = 0
CLASSIFICATION_TYPE = U
NORAD_CAT_ID   = 16719
ELEMENT_SET_NO = 999
REV_AT_EPOCH   = 18052
BSTAR          = .52491E-3
MEAN_MOTION_DOT = .405E-3
MEAN_MOTION_DDOT = 0

