SL-3 R/B                
1 13403U 82079B   26070.50430984  .00007887  00000+0  31379-3 0  9990
2 13403  81.1478 190.9348 0025121 158.7015 201.5270 15.24831766377977
SL-14 R/B               
1 13553U 82092B   26070.26015911  .00000529  00000+0  56648-4 0  9996
2 13553  82.5692 139.9307 0018941 297.8937 130.0510 14.86668036329160
SL-3 R/B                
1 13819U 83010B   26070.24924987  .00020038  00000+0  40143-3 0  9991
2 13819  81.1060   0.3352 0017858  45.8312 314.4397 15.46421618358189
SL-3 R/B                
1 14208U 83075B   26070.50830392  .00012980  00000+0  34181-3 0  9992
2 14208  97.6147  75.1544 0020277 218.9536 141.0248 15.38467520330433
COSMOS 1536             
1 14699U 84013A   26070.49289476  .00007200  00000+0  29669-3 0  9992
2 14699  82.5430 106.0578 0012501 276.1837  83.7976 15.23852184272890
SL-14 R/B               
1 14820U 84027B   26070.51125332  .00000622  00000+0  68348-4 0  9995
2 14820  82.5389 243.3038 0017187 331.6477  28.3802 14.85978698247900
SL-8 R/B                
1 15483U 85006B   26070.52810683  .00000379  00000+0  13435-3 0  9995
2 15483  74.0432 257.7652 0018387 175.1191 201.9815 14.37784494154297
SL-12 R/B(2)            
1 15772U 85042D   26070.46175300  .00000106  00000+0  69232-4 0  9994
2 15772  71.1063  83.9844 0033157 125.2306 341.6068 14.21982819114645
SL-14 R/B               
1 15945U 85069B   26070.36085145  .00000665  00000+0  72304-4 0  9995
2 15945  82.5288  23.3616 0018627 182.1335 177.9806 14.86435379173084
SL-16 R/B               
1 16182U 85097B   26070.47540990 -.00000172  00000+0 -62249-4 0  9998
2 16182  71.0025 136.7953 0009877 257.6352 193.7425 14.16598414 87481
SL-14 R/B               
1 16496U 86006B   26070.47207947  .00000790  00000+0  81497-4 0  9999
2 16496  82.5235 258.0592 0075050 266.7618  92.5011 14.86817649149474
COSMOS 1743             
1 16719U 86034A   26070.43971546  .00040500  00000+0  52491-3 0  9991
2 16719  82.5296  71.9940 0001475 275.9699  84.1389 15.58688651180524
